{
"type": "FeatureCollection",
"name": "zonasi_mare",
"crs": { "type": "name", "properties": { "name": "urn:ogc:def:crs:OGC:1.3:CRS84" } },
"features": [
{ "type": "Feature", "properties": { "Id_Zona": 7, "Zona": "Perikanan Berkelanjutan", "Sub_Zona": "Penangkapan Ikan", "Luas": 6811.0099932399999, "KKP": "Pulau Mare" }, "geometry": { "type": "MultiPolygon", "coordinates": [ [ [ [ 127.43855654950724, 0.595588349363765, 0.0 ], [ 127.438559561092376, 0.584791062354725, 0.0 ], [ 127.4385732849926, 0.532823723810168, 0.0 ], [ 127.438573366062016, 0.532501674335435, 0.0 ], [ 127.435627399092184, 0.532500922303711, 0.0 ], [ 127.357835640516953, 0.532480551215428, 0.0 ], [ 127.357817765369447, 0.596206142803055, 0.0 ], [ 127.357813682113985, 0.609829345789762, 0.0 ], [ 127.357874787827242, 0.609829364559629, 0.0 ], [ 127.36029192232823, 0.609830106477431, 0.0 ], [ 127.402203901302371, 0.609842797263979, 0.0 ], [ 127.406297487241744, 0.609844019176875, 0.0 ], [ 127.438552486156524, 0.609853537488732, 0.0 ], [ 127.43855654950724, 0.595588349363765, 0.0 ] ], [ [ 127.391360613000515, 0.582512497000038, 0.0 ], [ 127.391265560000519, 0.582428721000042, 0.0 ], [ 127.391081385000462, 0.582297063000112, 0.0 ], [ 127.39104573900056, 0.582273125000085, 0.0 ], [ 127.390915005000338, 0.582285052000316, 0.0 ], [ 127.390855602000542, 0.582213250000052, 0.0 ], [ 127.390665510000417, 0.581991859000083, 0.0 ], [ 127.39061204800042, 0.581926040999974, 0.0 ], [ 127.390534822000632, 0.581842270000265, 0.0 ], [ 127.390451648000507, 0.581776444000127, 0.0 ], [ 127.390332832000468, 0.581668733000185, 0.0 ], [ 127.390255607000526, 0.581578979000028, 0.0 ], [ 127.390190261000498, 0.58151315900011, 0.0 ], [ 127.390118981000441, 0.581417424999983, 0.0 ], [ 127.390035817000452, 0.581315707000101, 0.0 ], [ 127.389917016000368, 0.581154157000242, 0.0 ], [ 127.389833861000625, 0.581022528000119, 0.0 ], [ 127.38977447800039, 0.580878942000311, 0.0 ], [ 127.389685383000582, 0.580741329000034, 0.0 ], [ 127.389584369000417, 0.580723355000145, 0.0 ], [ 127.389489293000565, 0.580717344999982, 0.0 ], [ 127.389435862000468, 0.58054385000014, 0.0 ], [ 127.389394291000357, 0.580454107000037, 0.0 ], [ 127.389364607000402, 0.580358386000057, 0.0 ], [ 127.389361672714472, 0.580351206500381, 0.0 ], [ 127.385998659130436, 0.582480570737686, 0.0 ], [ 127.378527151572044, 0.57077362258866, 0.0 ], [ 127.3790832696168, 0.570388771479258, 0.0 ], [ 127.380948898104421, 0.569123938456584, 0.0 ], [ 127.38143422654845, 0.568794902184606, 0.0 ], [ 127.381750581739112, 0.568580424084416, 0.0 ], [ 127.381749896000457, 0.568572806000133, 0.0 ], [ 127.38173566200058, 0.568472304000181, 0.0 ], [ 127.381728548000538, 0.568414874000041, 0.0 ], [ 127.381671517000441, 0.568357431000151, 0.0 ], [ 127.381614489000427, 0.568292809000126, 0.0 ], [ 127.381571721000597, 0.568235370000081, 0.0 ], [ 127.38150044200043, 0.568134851000024, 0.0 ], [ 127.381457679000405, 0.568055877000063, 0.0 ], [ 127.381422046000381, 0.567984082000066, 0.0 ], [ 127.381379292000389, 0.567876393000119, 0.0 ], [ 127.381350793000379, 0.56779024500031, 0.0 ], [ 127.381322293000409, 0.567704095000124, 0.0 ], [ 127.381279532000477, 0.567625120000059, 0.0 ], [ 127.381229636000427, 0.567553322000151, 0.0 ], [ 127.381186868000469, 0.567495883000106, 0.0 ], [ 127.381144109000417, 0.567402551000214, 0.0 ], [ 127.381072842000464, 0.567258962000153, 0.0 ], [ 127.381037212000507, 0.567172812000081, 0.0 ], [ 127.380987321000376, 0.567086657000175, 0.0 ], [ 127.380937426000415, 0.567014858, 0.0 ], [ 127.380880392000478, 0.566971772000158, 0.0 ], [ 127.380823360000377, 0.566921506000085, 0.0 ], [ 127.380787735000382, 0.566820999000015, 0.0 ], [ 127.38068079800054, 0.566734827, 0.0 ], [ 127.380602383000465, 0.56664866400007, 0.0 ], [ 127.380545360000497, 0.566569685000047, 0.0 ], [ 127.380481205000365, 0.566490705000092, 0.0 ], [ 127.380438432000489, 0.566447622000339, 0.0 ], [ 127.380352888000544, 0.566361457000198, 0.0 ], [ 127.380324393000379, 0.566260950000128, 0.0 ], [ 127.380153302000423, 0.566095799000095, 0.0 ], [ 127.380103408000551, 0.566016822000051, 0.0 ], [ 127.380053514000451, 0.565945024000143, 0.0 ], [ 127.380010759000371, 0.565837335000026, 0.0 ], [ 127.37991807600045, 0.565779882000129, 0.0 ], [ 127.37986818900049, 0.565679370000168, 0.0 ], [ 127.379825444000431, 0.56553578900008, 0.0 ], [ 127.379775566000376, 0.565399385000034, 0.0 ], [ 127.379739951000374, 0.565262985000117, 0.0 ], [ 127.379682961000427, 0.565061973000354, 0.0 ], [ 127.379647371000402, 0.564832254000066, 0.0 ], [ 127.379626010000393, 0.56471739300008, 0.0 ], [ 127.37962603600046, 0.564624074000051, 0.0 ], [ 127.379604678000447, 0.564502035000032, 0.0 ], [ 127.379583318000428, 0.564387173999989, 0.0 ], [ 127.379569084000551, 0.564286672000037, 0.0 ], [ 127.379561985000365, 0.564171815000065, 0.0 ], [ 127.379519248000548, 0.563999521000027, 0.0 ], [ 127.379497904000473, 0.563827233000154, 0.0 ], [ 127.379497948000463, 0.563669308000101, 0.0 ], [ 127.379497989000384, 0.563518561000023, 0.0 ], [ 127.379498025000444, 0.563389349000147, 0.0 ], [ 127.379498064000387, 0.563245780999978, 0.0 ], [ 127.379519506000548, 0.563066326000125, 0.0 ], [ 127.379526686000432, 0.562886868000021, 0.0 ], [ 127.379562417000457, 0.562606919000245, 0.0 ], [ 127.379598117000697, 0.562441825000064, 0.0 ], [ 127.379676614000587, 0.562226495, 0.0 ], [ 127.379733711000554, 0.562039872000127, 0.0 ], [ 127.379812240000575, 0.561709685999972, 0.0 ], [ 127.379855058000572, 0.561587666000036, 0.0 ], [ 127.379997783000377, 0.561185714000146, 0.0 ], [ 127.380026343000424, 0.561049331000163, 0.0 ], [ 127.380111973000581, 0.560826824000116, 0.0 ], [ 127.380197581000431, 0.560683279000045, 0.0 ], [ 127.380297450000413, 0.560539739000091, 0.0 ], [ 127.380406554922644, 0.560333129975617, 0.0 ], [ 127.380426339755118, 0.560299225238282, 0.0 ], [ 127.38050433800052, 0.560188053000104, 0.0 ], [ 127.380544422026361, 0.560121801744287, 0.0 ], [ 127.380584392869324, 0.560055737553511, 0.0 ], [ 127.380604214000556, 0.56002297700013, 0.0 ], [ 127.38061410369211, 0.560005288996194, 0.0 ], [ 127.380732629000605, 0.559793303000163, 0.0 ], [ 127.380763360712891, 0.559749500922066, 0.0 ], [ 127.38081823100039, 0.559671294000111, 0.0 ], [ 127.380863836877921, 0.559610114355109, 0.0 ], [ 127.380871110937292, 0.559600356306305, 0.0 ], [ 127.38092523100056, 0.559527755000033, 0.0 ], [ 127.38093432452095, 0.559514603387583, 0.0 ], [ 127.380963929767404, 0.559471786446124, 0.0 ], [ 127.381039368000529, 0.559362683000017, 0.0 ], [ 127.381132110000536, 0.559204783000098, 0.0 ], [ 127.381236607733996, 0.559078619446893, 0.0 ], [ 127.381239107000397, 0.559075602000177, 0.0 ], [ 127.381346111000568, 0.558917706000102, 0.0 ], [ 127.381403184000447, 0.558817224000108, 0.0 ], [ 127.381474516000608, 0.558723924000048, 0.0 ], [ 127.38156011800038, 0.558601915000167, 0.0 ], [ 127.381645717000438, 0.558494261000135, 0.0 ], [ 127.381788351000424, 0.558422517000053, 0.0 ], [ 127.381959495000515, 0.558393851000176, 0.0 ], [ 127.381986660533258, 0.558395811629509, 0.0 ], [ 127.382000766653306, 0.558396829716457, 0.0 ], [ 127.382027038796679, 0.558398725866709, 0.0 ], [ 127.382038089264952, 0.558399523416824, 0.0 ], [ 127.382059324000366, 0.55840105600015, 0.0 ], [ 127.382094966000437, 0.558444137000094, 0.0 ], [ 127.382130606000388, 0.558494396000071, 0.0 ], [ 127.382166235000582, 0.558580546999962, 0.0 ], [ 127.382166228000429, 0.558609261000071, 0.0 ], [ 127.382144814000654, 0.558688218000099, 0.0 ], [ 127.382144794000538, 0.558760001999985, 0.0 ], [ 127.382194693000443, 0.558817443000066, 0.0 ], [ 127.382223193000669, 0.558903592000149, 0.0 ], [ 127.382265956000552, 0.558982567000043, 0.0 ], [ 127.382337243000535, 0.559054371000115, 0.0 ], [ 127.382401408000433, 0.5590974590001, 0.0 ], [ 127.382465571000495, 0.559147727000038, 0.0 ], [ 127.38257251200038, 0.559219540000185, 0.0 ], [ 127.382650928000444, 0.559298525000088, 0.0 ], [ 127.382658020000491, 0.559442095000065, 0.0 ], [ 127.382629463000526, 0.559564121, 0.0 ], [ 127.382615170000363, 0.559678971000096, 0.0 ], [ 127.382572358000544, 0.55977945800015, 0.0 ], [ 127.382572331000588, 0.559879956000316, 0.0 ], [ 127.382566258037642, 0.559910480708595, 0.0 ], [ 127.382565117407481, 0.559916213891938, 0.0 ], [ 127.382560647425194, 0.559938681490166, 0.0 ], [ 127.382558050000412, 0.559951737000119, 0.0 ], [ 127.382558022000381, 0.560052234000181, 0.0 ], [ 127.382565131000561, 0.560131199000011, 0.0 ], [ 127.382565071623532, 0.56013238792417, 0.0 ], [ 127.382564455560015, 0.560144723541725, 0.0 ], [ 127.382557961000444, 0.560274766000077, 0.0 ], [ 127.382522284000416, 0.560360897, 0.0 ], [ 127.382500860000405, 0.560475746, 0.0 ], [ 127.382504857496343, 0.560485143018297, 0.0 ], [ 127.38254361700038, 0.560576256, 0.0 ], [ 127.382544607121432, 0.560577336402445, 0.0 ], [ 127.382629160000434, 0.560669599000164, 0.0 ], [ 127.382673664275003, 0.560746452746457, 0.0 ], [ 127.382679051000551, 0.560755755, 0.0 ], [ 127.382728951000544, 0.56081319500015, 0.0 ], [ 127.382831766696071, 0.560906894384913, 0.0 ], [ 127.382919143913213, 0.560808986136862, 0.0 ], [ 127.383050736562183, 0.560667680767494, 0.0 ], [ 127.383299765872025, 0.560400270855837, 0.0 ], [ 127.388463279025245, 0.562552141632522, 0.0 ], [ 127.38850985420811, 0.562571551629332, 0.0 ], [ 127.388666200796592, 0.562656882285466, 0.0 ], [ 127.388761064000391, 0.562595127000179, 0.0 ], [ 127.388882295000357, 0.562566447000108, 0.0 ], [ 127.389011461512936, 0.562516952475675, 0.0 ], [ 127.38903205600046, 0.562509061000128, 0.0 ], [ 127.38905929124688, 0.562492620931095, 0.0 ], [ 127.389146918406254, 0.562439726364857, 0.0 ], [ 127.389146437777981, 0.562377327003275, 0.0 ], [ 127.389126031097803, 0.561816604245621, 0.0 ], [ 127.391415915976154, 0.561816604342766, 0.0 ], [ 127.39492603135875, 0.562761897980124, 0.0 ], [ 127.398454556413057, 0.563712149444654, 0.0 ], [ 127.39845457856903, 0.563476077373934, 0.0 ], [ 127.398454588988656, 0.563365053752193, 0.0 ], [ 127.398454593507495, 0.563316904151633, 0.0 ], [ 127.398454607652411, 0.56316618943589, 0.0 ], [ 127.39845461984271, 0.563036301072884, 0.0 ], [ 127.398454669655166, 0.562505544787939, 0.0 ], [ 127.398825192629943, 0.56214182456614, 0.0 ], [ 127.398956928679681, 0.562012507172937, 0.0 ], [ 127.401179841340038, 0.559830406895401, 0.0 ], [ 127.402768364550951, 0.5598304068954, 0.0 ], [ 127.404293445771899, 0.5598304068954, 0.0 ], [ 127.404688918719302, 0.560478650883112, 0.0 ], [ 127.406610857764193, 0.563629019167251, 0.0 ], [ 127.406721226498775, 0.56380993133655, 0.0 ], [ 127.408048785468011, 0.565986014747466, 0.0 ], [ 127.405841325601017, 0.567826506535027, 0.0 ], [ 127.405705580766792, 0.567933450910516, 0.0 ], [ 127.405745120000432, 0.567933462000155, 0.0 ], [ 127.405866341000404, 0.567947852000088, 0.0 ], [ 127.405944771000321, 0.567976588000022, 0.0 ], [ 127.406000062687639, 0.568004437409911, 0.0 ], [ 127.406016070000376, 0.568012500000122, 0.0 ], [ 127.406108753000311, 0.568077133000031, 0.0 ], [ 127.406141100902886, 0.568107000019324, 0.0 ], [ 127.40619430100034, 0.568156120000082, 0.0 ], [ 127.406223425578972, 0.568224584590723, 0.0 ], [ 127.406237058000414, 0.568256631000167, 0.0 ], [ 127.406315479000412, 0.568321259000186, 0.0 ], [ 127.406379637000413, 0.568393063000087, 0.0 ], [ 127.4064413487433, 0.568446341686808, 0.0 ], [ 127.407796367248324, 0.567212199138282, 0.0 ], [ 127.409798404090083, 0.569710908374929, 0.0 ], [ 127.411026253901213, 0.571243367518889, 0.0 ], [ 127.411861324305704, 0.572285605148408, 0.0 ], [ 127.412472025266268, 0.574102188319955, 0.0 ], [ 127.412950817442677, 0.575526397329326, 0.0 ], [ 127.413183839598858, 0.576219542019089, 0.0 ], [ 127.413220899813339, 0.576411243522443, 0.0 ], [ 127.412609434956124, 0.579265446045497, 0.0 ], [ 127.410388815987019, 0.578669941710927, 0.0 ], [ 127.410385791788002, 0.578680281926722, 0.0 ], [ 127.41038313000044, 0.578689383000039, 0.0 ], [ 127.41038027873897, 0.578690612165815, 0.0 ], [ 127.410341529000405, 0.578707317000123, 0.0 ], [ 127.410282083000496, 0.578785068000058, 0.0 ], [ 127.410276558777994, 0.578798959610764, 0.0 ], [ 127.41025829700034, 0.578844882000055, 0.0 ], [ 127.410257059606664, 0.578881942271153, 0.0 ], [ 127.410252305000398, 0.579024344000174, 0.0 ], [ 127.41030577300053, 0.579072216000042, 0.0 ], [ 127.410388959000514, 0.579096168000035, 0.0 ], [ 127.410406771000538, 0.57915001200007, 0.0 ], [ 127.410436422000402, 0.579371359, 0.0 ], [ 127.410447647271397, 0.579398501766263, 0.0 ], [ 127.410466113000624, 0.57944315200018, 0.0 ], [ 127.41048391900037, 0.579520924, 0.0 ], [ 127.410507668000463, 0.579592716000093, 0.0 ], [ 127.410525467000383, 0.579694417999974, 0.0 ], [ 127.410549209000422, 0.579796120000082, 0.0 ], [ 127.410578866000478, 0.579987556000105, 0.0 ], [ 127.410581774641258, 0.580034614916655, 0.0 ], [ 127.410584782000413, 0.580083271000091, 0.0 ], [ 127.410584768000462, 0.58013711, 0.0 ], [ 127.410584749000307, 0.58020291300005, 0.0 ], [ 127.410584722000365, 0.580298627000161, 0.0 ], [ 127.410555004000415, 0.580322547000207, 0.0 ], [ 127.410513398000347, 0.580352446000063, 0.0 ], [ 127.410483670000374, 0.58041225800008, 0.0 ], [ 127.410470480141925, 0.580475241915735, 0.0 ], [ 127.410459869000505, 0.580525912000041, 0.0 ], [ 127.410459849000489, 0.580597698000133, 0.0 ], [ 127.410477658000417, 0.580663506000064, 0.0 ], [ 127.410495458000312, 0.580759224000189, 0.0 ], [ 127.410513273000419, 0.580801104999978, 0.0 ], [ 127.410529555640636, 0.580836645507588, 0.0 ], [ 127.410548906000329, 0.580878882000149, 0.0 ], [ 127.410578603000403, 0.580932729000039, 0.0 ], [ 127.410585145296139, 0.580954156002633, 0.0 ], [ 127.41060235000063, 0.581010504000176, 0.0 ], [ 127.41060233700054, 0.581058360000043, 0.0 ], [ 127.410602322000472, 0.581112199000131, 0.0 ], [ 127.410596351000393, 0.58121389300004, 0.0 ], [ 127.410590387000482, 0.581291659000101, 0.0 ], [ 127.41057847900035, 0.581375405000074, 0.0 ], [ 127.410554696000389, 0.58142325600005, 0.0 ], [ 127.410489315000603, 0.581477076000055, 0.0 ], [ 127.410435783000452, 0.581656524000152, 0.0 ], [ 127.410428288414863, 0.581679136923412, 0.0 ], [ 127.410400099000384, 0.581764191000104, 0.0 ], [ 127.410352537000534, 0.581847928, 0.0 ], [ 127.410316866000329, 0.581907738000154, 0.0 ], [ 127.410239590000486, 0.581997448000152, 0.0 ], [ 127.410138546000397, 0.582081169000218, 0.0 ], [ 127.410031556000362, 0.582176852000032, 0.0 ], [ 127.409995864000365, 0.582314431000156, 0.0 ], [ 127.409966133000324, 0.582380226000168, 0.0 ], [ 127.409948290000514, 0.582440042000144, 0.0 ], [ 127.409918561000453, 0.582499854000104, 0.0 ], [ 127.409912592000381, 0.582595566000066, 0.0 ], [ 127.409900687000416, 0.582667348000143, 0.0 ], [ 127.40988283800047, 0.582745111000065, 0.0 ], [ 127.409853105000337, 0.582816887000149, 0.0 ], [ 127.409799609000373, 0.582870711000169, 0.0 ], [ 127.409627210000593, 0.583121910000102, 0.0 ], [ 127.409436950000512, 0.58349274700015, 0.0 ], [ 127.409389384000491, 0.583588447000068, 0.0 ], [ 127.409318056000373, 0.58366021200004, 0.0 ], [ 127.409270499000485, 0.583726002000162, 0.0 ], [ 127.409175393000467, 0.583821688000057, 0.0 ], [ 127.408896024000541, 0.584096784999985, 0.0 ], [ 127.408818748000357, 0.584186495000153, 0.0 ], [ 127.408729586000362, 0.584282183000084, 0.0 ], [ 127.408652305000331, 0.584389839000096, 0.0 ], [ 127.408575034000435, 0.584461603000022, 0.0 ], [ 127.408473988000381, 0.584551305000161, 0.0 ], [ 127.408402663000473, 0.584611106000011, 0.0 ], [ 127.408289739000523, 0.584676877000049, 0.0 ], [ 127.408182763000312, 0.58472470300029, 0.0 ], [ 127.408105510000468, 0.584736645000021, 0.0 ], [ 127.408016384000533, 0.58470072700004, 0.0 ], [ 127.407915365000321, 0.584694716, 0.0 ], [ 127.407719262000668, 0.584712606000096, 0.0 ], [ 127.407416206000406, 0.584694574000195, 0.0 ], [ 127.407291415000344, 0.584700520000126, 0.0 ], [ 127.407208227000382, 0.584682550000081, 0.0 ], [ 127.407130993000436, 0.584622707, 0.0 ], [ 127.407065631000336, 0.584610724000185, 0.0 ], [ 127.406976488000481, 0.584634627000127, 0.0 ], [ 127.406887345000513, 0.584664512000188, 0.0 ], [ 127.406825638070089, 0.584688243440098, 0.0 ], [ 127.406825636153911, 0.588482626919358, 0.0 ], [ 127.406822155208104, 0.588879006818899, 0.0 ], [ 127.390660856053145, 0.589021774479363, 0.0 ], [ 127.388619278509722, 0.585852332418937, 0.0 ], [ 127.388920122196723, 0.585648506051768, 0.0 ], [ 127.391954554004769, 0.583539832020278, 0.0 ], [ 127.391954569000404, 0.583487743000091, 0.0 ], [ 127.391948641000454, 0.58343390300007, 0.0 ], [ 127.391871441000475, 0.583260401000075, 0.0 ], [ 127.391806075000417, 0.583260383000094, 0.0 ], [ 127.391746661000397, 0.583230455000091, 0.0 ], [ 127.391699141000444, 0.58316463900013, 0.0 ], [ 127.391663507000544, 0.583092843000088, 0.0 ], [ 127.391645704000538, 0.583009089000086, 0.0 ], [ 127.391633840000381, 0.582937302000061, 0.0 ], [ 127.391586327000354, 0.582847557000207, 0.0 ], [ 127.391532875000379, 0.582745847000126, 0.0 ], [ 127.391491296000368, 0.582686014000103, 0.0 ], [ 127.391425957000351, 0.582590282000126, 0.0 ], [ 127.391360613000515, 0.582512497000038, 0.0 ] ] ] ] } },
{ "type": "Feature", "properties": { "Id_Zona": 1, "Zona": "Inti", "Sub_Zona": "Inti", "Luas": 64.133825459700006, "KKP": "Pulau Mare" }, "geometry": { "type": "MultiPolygon", "coordinates": [ [ [ [ 127.381757004000548, 0.56865177100002, 0.0 ], [ 127.381750581739112, 0.568580424084416, 0.0 ], [ 127.38143422654845, 0.568794902184435, 0.0 ], [ 127.380948898104421, 0.569123938456584, 0.0 ], [ 127.3790832696168, 0.570388771479258, 0.0 ], [ 127.378527151572044, 0.57077362258866, 0.0 ], [ 127.385998659130436, 0.582480570737686, 0.0 ], [ 127.389361672714472, 0.580351206500381, 0.0 ], [ 127.389323039000473, 0.580256679000058, 0.0 ], [ 127.389281463000415, 0.580184883000186, 0.0 ], [ 127.389216108000355, 0.580148972000131, 0.0 ], [ 127.389109146000465, 0.580148941000061, 0.0 ], [ 127.389008127000352, 0.580148913000016, 0.0 ], [ 127.388895224000507, 0.580148880000138, 0.0 ], [ 127.38875856700065, 0.580089020000116, 0.0 ], [ 127.388681329000505, 0.580047124000032, 0.0 ], [ 127.388615980000509, 0.579987285000186, 0.0 ], [ 127.388532808000363, 0.579915477000099, 0.0 ], [ 127.388479346000381, 0.57984965900016, 0.0 ], [ 127.388437767000369, 0.57978982600008, 0.0 ], [ 127.388372422000415, 0.579718023000111, 0.0 ], [ 127.388283315000422, 0.57962228499997, 0.0 ], [ 127.388223924000386, 0.579508609000186, 0.0 ], [ 127.388105104000374, 0.579412863000072, 0.0 ], [ 127.388015995000487, 0.579323106000174, 0.0 ], [ 127.387802120000501, 0.579155548000187, 0.0 ], [ 127.387707062000445, 0.579089718000034, 0.0 ], [ 127.387671428000544, 0.579017923000094, 0.0 ], [ 127.38767741300056, 0.578868374000024, 0.0 ], [ 127.387713105000444, 0.578730797000105, 0.0 ], [ 127.387707251000379, 0.578419729000131, 0.0 ], [ 127.387695422000533, 0.57822231800003, 0.0 ], [ 127.387653854000504, 0.578120611999964, 0.0 ], [ 127.387582565000571, 0.578054789000134, 0.0 ], [ 127.387535048000586, 0.577982991000055, 0.0 ], [ 127.387493475000596, 0.57789923100006, 0.0 ], [ 127.387475664000462, 0.577839405000077, 0.0 ], [ 127.387445969000396, 0.57778555800013, 0.0 ], [ 127.387416275000405, 0.577719748000049, 0.0 ], [ 127.387368760000527, 0.577635985000142, 0.0 ], [ 127.387303423000375, 0.577540254000098, 0.0 ], [ 127.387238075000468, 0.577474431999974, 0.0 ], [ 127.387208378000423, 0.577426568000135, 0.0 ], [ 127.387178687000528, 0.577354775000117, 0.0 ], [ 127.387172763000521, 0.57728897100003, 0.0 ], [ 127.387143068000455, 0.577229142000135, 0.0 ], [ 127.387089603000376, 0.577175288000092, 0.0 ], [ 127.38689948200043, 0.577055593000068, 0.0 ], [ 127.386822238000363, 0.577037625000173, 0.0 ], [ 127.386744993000534, 0.577019657000107, 0.0 ], [ 127.386643979000482, 0.577001682000116, 0.0 ], [ 127.386548910000542, 0.576971745000037, 0.0 ], [ 127.386406306000481, 0.576935811000112, 0.0 ], [ 127.386281518000601, 0.576935776000027, 0.0 ], [ 127.386192391000463, 0.57690584, 0.0 ], [ 127.386127039000357, 0.576857965000044, 0.0 ], [ 127.386085464000416, 0.576786169000172, 0.0 ], [ 127.385948830000402, 0.576648543000146, 0.0 ], [ 127.385925107000375, 0.576481039000157, 0.0 ], [ 127.385925151000379, 0.576325506000159, 0.0 ], [ 127.385948953000366, 0.576211854000178, 0.0 ], [ 127.385853938000409, 0.57599049200013, 0.0 ], [ 127.385818313000414, 0.575888787000167, 0.0 ], [ 127.385776757000357, 0.575745206000079, 0.0 ], [ 127.385735187000478, 0.575655464000135, 0.0 ], [ 127.385669856000604, 0.575529823000124, 0.0 ], [ 127.385616394000635, 0.575464005000185, 0.0 ], [ 127.385539183000546, 0.575326396000093, 0.0 ], [ 127.385461971000367, 0.57519477, 0.0 ], [ 127.385432291000598, 0.575081103000116, 0.0 ], [ 127.38538479600048, 0.574925556000153, 0.0 ], [ 127.385367005000361, 0.574799928000061, 0.0 ], [ 127.385462999599085, 0.574606790278551, 0.0 ], [ 127.385497809000512, 0.574536755, 0.0 ], [ 127.385557258000389, 0.574441060000026, 0.0 ], [ 127.385586997000473, 0.574345355000161, 0.0 ], [ 127.385655741341324, 0.574254060349062, 0.0 ], [ 127.385705888000416, 0.574187463999976, 0.0 ], [ 127.385748688000362, 0.574130049000132, 0.0 ], [ 127.385805750000358, 0.574072636999972, 0.0 ], [ 127.385791525000514, 0.573943421000137, 0.0 ], [ 127.385755796738181, 0.573793370488545, 0.0 ], [ 127.385748791000537, 0.573763948000135, 0.0 ], [ 127.385727431000518, 0.573649087000092, 0.0 ], [ 127.385691813000435, 0.573519865000093, 0.0 ], [ 127.385649071000429, 0.57336910500004, 0.0 ], [ 127.385584926000547, 0.573254232000067, 0.0 ], [ 127.38549226400049, 0.573117815000046, 0.0 ], [ 127.385428126000519, 0.5729814070001, 0.0 ], [ 127.385385370000549, 0.572880896000072, 0.0 ], [ 127.385306967000346, 0.57275166200003, 0.0 ], [ 127.385273125408943, 0.572691055879715, 0.0 ], [ 127.385242823000567, 0.572636788000125, 0.0 ], [ 127.385135892000676, 0.572529082000073, 0.0 ], [ 127.385014696000425, 0.572435728000186, 0.0 ], [ 127.384857845000496, 0.572342364000064, 0.0 ], [ 127.384765162000335, 0.572284910000121, 0.0 ], [ 127.384679603000436, 0.572248993000073, 0.0 ], [ 127.384544139000468, 0.572177170000088, 0.0 ], [ 127.384494245000596, 0.572098193000044, 0.0 ], [ 127.384237597000364, 0.571889946000112, 0.0 ], [ 127.384002314000654, 0.571775025000136, 0.0 ], [ 127.383781318000487, 0.571573965000027, 0.0 ], [ 127.383688630000492, 0.571530869000184, 0.0 ], [ 127.383574556000426, 0.571466230000055, 0.0 ], [ 127.383396306000463, 0.571401574000049, 0.0 ], [ 127.3832679650004, 0.571358467000152, 0.0 ], [ 127.383068318000468, 0.571308161000047, 0.0 ], [ 127.382904331000546, 0.571236331000136, 0.0 ], [ 127.382768872000412, 0.571150151000097, 0.0 ], [ 127.38267619400041, 0.571071162000066, 0.0 ], [ 127.382583537000428, 0.570920388000047, 0.0 ], [ 127.382490891000444, 0.57072654500007, 0.0 ], [ 127.382369709000514, 0.570582941999987, 0.0 ], [ 127.38229844400044, 0.570432174000132, 0.0 ], [ 127.382241437000417, 0.570288589000085, 0.0 ], [ 127.382148788000478, 0.570109103000163, 0.0 ], [ 127.382077507000545, 0.570015763000071, 0.0 ], [ 127.381984846000393, 0.56987934600005, 0.0 ], [ 127.381892180000378, 0.569757287000186, 0.0 ], [ 127.38182804300051, 0.569613700000104, 0.0 ], [ 127.381756780000515, 0.569455755000092, 0.0 ], [ 127.381699775000385, 0.569312169999989, 0.0 ], [ 127.381664179000396, 0.569103985000083, 0.0 ], [ 127.381707001000578, 0.568967607, 0.0 ], [ 127.381728437000589, 0.568809687999987, 0.0 ], [ 127.381756984000404, 0.568723555000076, 0.0 ], [ 127.381757004000548, 0.56865177100002, 0.0 ] ] ] ] } },
{ "type": "Feature", "properties": { "Id_Zona": 2, "Zona": "Inti", "Sub_Zona": "Inti", "Luas": 21.847331022900001, "KKP": "Pulau Mare" }, "geometry": { "type": "MultiPolygon", "coordinates": [ [ [ [ 127.394204641219844, 0.588576463312904, 0.0 ], [ 127.394204641427322, 0.586487264209609, 0.0 ], [ 127.394176139000351, 0.586509323000143, 0.0 ], [ 127.394128548000467, 0.586694753000017, 0.0 ], [ 127.39410475200043, 0.58678447699998, 0.0 ], [ 127.394033427000522, 0.586844277000125, 0.0 ], [ 127.393908626000538, 0.586886115000027, 0.0 ], [ 127.393795726000448, 0.586874118000025, 0.0 ], [ 127.393682827000475, 0.586856139000076, 0.0 ], [ 127.393575871000508, 0.586832180000101, 0.0 ], [ 127.393480803000429, 0.586802243000022, 0.0 ], [ 127.393379792000474, 0.586772303000032, 0.0 ], [ 127.393243134000372, 0.586718425000015, 0.0 ], [ 127.3931183560005, 0.586676515000135, 0.0 ], [ 127.392940120000375, 0.586562804000038, 0.0 ], [ 127.392904477000457, 0.586520920000112, 0.0 ], [ 127.392827283000543, 0.586323489000051, 0.0 ], [ 127.392803560000388, 0.58616196700018, 0.0 ], [ 127.392785782000374, 0.585988482000118, 0.0 ], [ 127.392750159000556, 0.58588079499998, 0.0 ], [ 127.392672945000527, 0.585755149000079, 0.0 ], [ 127.392625422000364, 0.585701297000071, 0.0 ], [ 127.392518498000413, 0.585569661000022, 0.0 ], [ 127.392470981000528, 0.585491880000063, 0.0 ], [ 127.392441302000506, 0.58537821200008, 0.0 ], [ 127.392405683000433, 0.585252579999974, 0.0 ], [ 127.392381940000504, 0.585162842000045, 0.0 ], [ 127.392346320000442, 0.585043190000078, 0.0 ], [ 127.392322579000506, 0.584941488000026, 0.0 ], [ 127.392310731000407, 0.584815862000084, 0.0 ], [ 127.392298873000527, 0.584720145000062, 0.0 ], [ 127.392275141000482, 0.58458853400009, 0.0 ], [ 127.392251404000376, 0.584474868000143, 0.0 ], [ 127.392215772000441, 0.584397090999971, 0.0 ], [ 127.392156375000468, 0.584307343000034, 0.0 ], [ 127.392102923000479, 0.584205632000021, 0.0 ], [ 127.392067291000544, 0.584127855000076, 0.0 ], [ 127.39201977900052, 0.584032128999979, 0.0 ], [ 127.392025773000441, 0.583852669000066, 0.0 ], [ 127.391990140000402, 0.583780874000069, 0.0 ], [ 127.391960451000372, 0.583697117000156, 0.0 ], [ 127.391954538000505, 0.58359542, 0.0 ], [ 127.391954554004769, 0.583539832020278, 0.0 ], [ 127.388920122196723, 0.585648506051768, 0.0 ], [ 127.388619278509722, 0.585852332418937, 0.0 ], [ 127.390660856053145, 0.589021774479363, 0.0 ], [ 127.394207517751511, 0.588990443545583, 0.0 ], [ 127.394204641219844, 0.588576463312904, 0.0 ] ] ] ] } },
{ "type": "Feature", "properties": { "Id_Zona": 4, "Zona": "Pemanfaatan", "Sub_Zona": "Pariwisata Alam Perairan", "Luas": 56.8664434935, "KKP": "Pulau Mare" }, "geometry": { "type": "MultiPolygon", "coordinates": [ [ [ [ 127.406825636153911, 0.588482626919358, 0.0 ], [ 127.406825638070089, 0.584688243440098, 0.0 ], [ 127.406685282000325, 0.584742222000045, 0.0 ], [ 127.406459444000319, 0.584843852000119, 0.0 ], [ 127.406376242000377, 0.584873739000158, 0.0 ], [ 127.406275208000324, 0.584921567000037, 0.0 ], [ 127.406180127000383, 0.584933504000048, 0.0 ], [ 127.406049380000326, 0.584987306000073, 0.0 ], [ 127.405966158000382, 0.585088978000101, 0.0 ], [ 127.405823508000339, 0.585208579000152, 0.0 ], [ 127.405663025000393, 0.585346120999986, 0.0 ], [ 127.405478797000413, 0.58539990700018, 0.0 ], [ 127.405359942000331, 0.585423802000093, 0.0 ], [ 127.40528268700038, 0.585441725000066, 0.0 ], [ 127.405217317000364, 0.585453671000039, 0.0 ], [ 127.405015268000355, 0.585483524000096, 0.0 ], [ 127.404920189000421, 0.585489478000056, 0.0 ], [ 127.404807277000344, 0.585513374000072, 0.0 ], [ 127.404688428000526, 0.585519322000038, 0.0 ], [ 127.404569577000387, 0.585537235000174, 0.0 ], [ 127.404492320000458, 0.585555158000147, 0.0 ], [ 127.404391292000312, 0.585585040000126, 0.0 ], [ 127.40412980100038, 0.58568067900012, 0.0 ], [ 127.403939663000514, 0.585620803000154, 0.0 ], [ 127.403345413000324, 0.585668490000103, 0.0 ], [ 127.403179034000544, 0.585644512999977, 0.0 ], [ 127.402757146000411, 0.585578589000022, 0.0 ], [ 127.402566999000399, 0.585548625000058, 0.0 ], [ 127.402477874000354, 0.585512707000077, 0.0 ], [ 127.402323380000396, 0.585488733999966, 0.0 ], [ 127.402216417000403, 0.585488703000067, 0.0 ], [ 127.402073802000317, 0.585482680000041, 0.0 ], [ 127.401794515000432, 0.585470636000082, 0.0 ], [ 127.40172321300038, 0.585446687000171, 0.0 ], [ 127.401628148000412, 0.585404785000037, 0.0 ], [ 127.401544971000433, 0.585350922000145, 0.0 ], [ 127.401485562000389, 0.585297066000123, 0.0 ], [ 127.401402388000378, 0.585231239999984, 0.0 ], [ 127.401342975000333, 0.585195331000136, 0.0 ], [ 127.401236024000326, 0.585153425000044, 0.0 ], [ 127.401152841000425, 0.585117509000099, 0.0 ], [ 127.401087491000425, 0.585063651000098, 0.0 ], [ 127.401063755000422, 0.584944002000043, 0.0 ], [ 127.401111333000443, 0.584806429000082, 0.0 ], [ 127.40114700700039, 0.584734654000101, 0.0 ], [ 127.401147031000349, 0.584650904000113, 0.0 ], [ 127.40110546400031, 0.584549197000115, 0.0 ], [ 127.401057963000397, 0.584411596000052, 0.0 ], [ 127.400998551000356, 0.584369704000096, 0.0 ], [ 127.400778695000426, 0.584333749000052, 0.0 ], [ 127.400677675000409, 0.584333720000188, 0.0 ], [ 127.400612312000447, 0.584327720000033, 0.0 ], [ 127.40052913900044, 0.584255910000138, 0.0 ], [ 127.400434090000388, 0.584154187000138, 0.0 ], [ 127.400362797000483, 0.584100329000136, 0.0 ], [ 127.400291507000432, 0.584034505000033, 0.0 ], [ 127.400190508000335, 0.583962691000124, 0.0 ], [ 127.400036030000351, 0.583878898000023, 0.0 ], [ 127.399929092000406, 0.583795119000115, 0.0 ], [ 127.399834040000513, 0.583705360000067, 0.0 ], [ 127.399786522000525, 0.583633562000159, 0.0 ], [ 127.399679583000392, 0.583549782000148, 0.0 ], [ 127.399542902000434, 0.583573669999964, 0.0 ], [ 127.399424050000533, 0.583591583000157, 0.0 ], [ 127.399323010000543, 0.583663339000054, 0.0 ], [ 127.399245732000395, 0.583759030000067, 0.0 ], [ 127.399210048000441, 0.583866697000132, 0.0 ], [ 127.399180311000336, 0.583956420000049, 0.0 ], [ 127.399144631000439, 0.584046141000101, 0.0 ], [ 127.399097065000419, 0.584141840000086, 0.0 ], [ 127.399061381000465, 0.584249507000038, 0.0 ], [ 127.399055411000504, 0.584345219000113, 0.0 ], [ 127.399061322000421, 0.584458880000056, 0.0 ], [ 127.399079119000362, 0.584566562000077, 0.0 ], [ 127.399114710000362, 0.584787910000102, 0.0 ], [ 127.399132515000346, 0.584865681000053, 0.0 ], [ 127.399215660000536, 0.585033204000126, 0.0 ], [ 127.399203740000416, 0.585158824000018, 0.0 ], [ 127.399096781000367, 0.585146829000052, 0.0 ], [ 127.398989819000448, 0.585146798000096, 0.0 ], [ 127.398900673000526, 0.585182665000161, 0.0 ], [ 127.398859059000415, 0.585248455000112, 0.0 ], [ 127.398835272000497, 0.585308269000052, 0.0 ], [ 127.398793649000353, 0.585403971000175, 0.0 ], [ 127.398734203000558, 0.585481721, 0.0 ], [ 127.3986271790004, 0.585703027000022, 0.0 ], [ 127.398561782000456, 0.585810685000069, 0.0 ], [ 127.398466684000354, 0.585882443000116, 0.0 ], [ 127.398306212000421, 0.585984092000103, 0.0 ], [ 127.398223016000415, 0.585996032000025, 0.0 ], [ 127.398133881000476, 0.585996006000016, 0.0 ], [ 127.398050692000425, 0.58598401800009, 0.0 ], [ 127.397955613000462, 0.585983991000034, 0.0 ], [ 127.397884313000418, 0.585960042000067, 0.0 ], [ 127.397777361000394, 0.585924119000026, 0.0 ], [ 127.397706060000345, 0.585900170000115, 0.0 ], [ 127.397634760000514, 0.58587023900003, 0.0 ], [ 127.397551574000531, 0.585846286999981, 0.0 ], [ 127.39747433200057, 0.585816355000019, 0.0 ], [ 127.397385200000485, 0.585804364000182, 0.0 ], [ 127.397319836000506, 0.585798364000027, 0.0 ], [ 127.397242590000346, 0.585786378000079, 0.0 ], [ 127.39718316800041, 0.585780378000151, 0.0 ], [ 127.397094038000532, 0.585762406000071, 0.0 ], [ 127.397016787000439, 0.585762384000077, 0.0 ], [ 127.396939537000421, 0.585762361000149, 0.0 ], [ 127.396713738000457, 0.585726405, 0.0 ], [ 127.396588960000472, 0.585690475999968, 0.0 ], [ 127.396464179000532, 0.585660529000051, 0.0 ], [ 127.396357225000543, 0.585630588000185, 0.0 ], [ 127.396202739000387, 0.585576705000051, 0.0 ], [ 127.396000718000423, 0.585516827000106, 0.0 ], [ 127.395893769000395, 0.585468939, 0.0 ], [ 127.395810585000376, 0.585439005000068, 0.0 ], [ 127.395745227000347, 0.585409076000132, 0.0 ], [ 127.395650164000358, 0.585361192000107, 0.0 ], [ 127.395555107000391, 0.585289380000176, 0.0 ], [ 127.395442218000412, 0.585235509000085, 0.0 ], [ 127.395323387000403, 0.585181636000129, 0.0 ], [ 127.395210486000437, 0.585169639000128, 0.0 ], [ 127.395139172000412, 0.585187565000012, 0.0 ], [ 127.395067854000558, 0.585223436000035, 0.0 ], [ 127.395055953000565, 0.585283254000046, 0.0 ], [ 127.395038095000459, 0.585390926000059, 0.0 ], [ 127.394966765000376, 0.585468672000104, 0.0 ], [ 127.394841957000381, 0.585534439000127, 0.0 ], [ 127.394723090000397, 0.585606189000032, 0.0 ], [ 127.394639879000337, 0.585671968000042, 0.0 ], [ 127.39456853000047, 0.585815517000128, 0.0 ], [ 127.394520969000482, 0.585893270000042, 0.0 ], [ 127.39444368000045, 0.586030834999974, 0.0 ], [ 127.394384221000564, 0.586156441000071, 0.0 ], [ 127.394324745000389, 0.586341868000033, 0.0 ], [ 127.394253406000516, 0.586449524000102, 0.0 ], [ 127.394204641427322, 0.586487264209609, 0.0 ], [ 127.394204641219844, 0.588576463312904, 0.0 ], [ 127.394207517751511, 0.588990443545583, 0.0 ], [ 127.406822155208104, 0.588879006818899, 0.0 ], [ 127.406825636153911, 0.588482626919358, 0.0 ] ] ] ] } },
{ "type": "Feature", "properties": { "Id_Zona": 6, "Zona": "Lainnya", "Sub_Zona": "Rehabilitasi", "Luas": 33.673980274500003, "KKP": "Pulau Mare" }, "geometry": { "type": "MultiPolygon", "coordinates": [ [ [ [ 127.40820415500032, 0.571928991999982, 0.0 ], [ 127.408216171791281, 0.571959931796129, 0.0 ], [ 127.408257599000393, 0.57206659500008, 0.0 ], [ 127.408316993000511, 0.57217429000002, 0.0 ], [ 127.408376392000335, 0.572264037000082, 0.0 ], [ 127.408447682000386, 0.572329861000014, 0.0 ], [ 127.408625908000388, 0.572491427000102, 0.0 ], [ 127.408699076697374, 0.572550387266233, 0.0 ], [ 127.408715023000312, 0.572563237000167, 0.0 ], [ 127.408792254000417, 0.572635045000083, 0.0 ], [ 127.408851662000373, 0.572694882000121, 0.0 ], [ 127.408899150000437, 0.572880341000086, 0.0 ], [ 127.408887234000503, 0.572993997000083, 0.0 ], [ 127.408887220000636, 0.573041854000052, 0.0 ], [ 127.408899085000328, 0.573113642000123, 0.0 ], [ 127.408919499662787, 0.573183587870005, 0.0 ], [ 127.408927234391584, 0.573210089036081, 0.0 ], [ 127.408927877008708, 0.573212290807135, 0.0 ], [ 127.408934390179382, 0.573219702369329, 0.0 ], [ 127.409006003000485, 0.573275189000071, 0.0 ], [ 127.409020205278779, 0.573287110259968, 0.0 ], [ 127.409077294000397, 0.57333503000018, 0.0 ], [ 127.409160484000353, 0.573347018000106, 0.0 ], [ 127.409267445000381, 0.573353030000021, 0.0 ], [ 127.40941600900041, 0.573335125000085, 0.0 ], [ 127.409528925000316, 0.573293282000065, 0.0 ], [ 127.409594291000488, 0.573293300999978, 0.0 ], [ 127.409659640000385, 0.573359122, 0.0 ], [ 127.409748775000452, 0.573359146000029, 0.0 ], [ 127.409861680000475, 0.573359178000032, 0.0 ], [ 127.409921103000514, 0.573359195000137, 0.0 ], [ 127.410028059000481, 0.573383153000122, 0.0 ], [ 127.410129068000373, 0.573425056000133, 0.0 ], [ 127.410212249000395, 0.573466954000082, 0.0 ], [ 127.410307319000324, 0.573496891000161, 0.0 ], [ 127.410432093000352, 0.573550765000163, 0.0 ], [ 127.410562811000503, 0.573604640999974, 0.0 ], [ 127.410758889000334, 0.573676481000063, 0.0 ], [ 127.410818297000645, 0.573730335999983, 0.0 ], [ 127.410853937000368, 0.573784186000182, 0.0 ], [ 127.410889568000442, 0.573867945000131, 0.0 ], [ 127.410932668644335, 0.573954782934265, 0.0 ], [ 127.410954898000526, 0.573999570000069, 0.0 ], [ 127.410996479000417, 0.574053420000098, 0.0 ], [ 127.410996415000412, 0.574286722000011, 0.0 ], [ 127.41099638800037, 0.574382436000121, 0.0 ], [ 127.411008249000574, 0.574472172000071, 0.0 ], [ 127.411020103000482, 0.574579853000046, 0.0 ], [ 127.411020078591577, 0.574670483228487, 0.0 ], [ 127.411020074000561, 0.574687530000176, 0.0 ], [ 127.411020046000388, 0.57478922700011, 0.0 ], [ 127.411020003000516, 0.574944762000143, 0.0 ], [ 127.41101400900034, 0.575130205000107, 0.0 ], [ 127.410924828000319, 0.575297679000073, 0.0 ], [ 127.410924787000425, 0.575441250000153, 0.0 ], [ 127.410948522000311, 0.575566881000156, 0.0 ], [ 127.410956629661158, 0.575632325506319, 0.0 ], [ 127.410960380000432, 0.575662598000178, 0.0 ], [ 127.410957532509514, 0.575713938662773, 0.0 ], [ 127.410948436000325, 0.575877950000063, 0.0 ], [ 127.410906798000468, 0.576027491000104, 0.0 ], [ 127.410817627000441, 0.57615309099998, 0.0 ], [ 127.410781950000413, 0.576236830000084, 0.0 ], [ 127.410738036596584, 0.576347258752605, 0.0 ], [ 127.410734378000342, 0.576356459000123, 0.0 ], [ 127.410728406000388, 0.576464136000083, 0.0 ], [ 127.410716493000422, 0.576565828000127, 0.0 ], [ 127.410710529000383, 0.576643594000188, 0.0 ], [ 127.410734278000362, 0.576715386000046, 0.0 ], [ 127.410775857000516, 0.576781201000074, 0.0 ], [ 127.41081149100043, 0.57685299600007, 0.0 ], [ 127.410812871254933, 0.576856472523502, 0.0 ], [ 127.410835244000353, 0.576912824000089, 0.0 ], [ 127.410876819000322, 0.576990603000183, 0.0 ], [ 127.410906503000504, 0.5770923070001, 0.0 ], [ 127.41090648084112, 0.57717184239118, 0.0 ], [ 127.410906468000434, 0.577217931000177, 0.0 ], [ 127.410906428000402, 0.577361502000087, 0.0 ], [ 127.410823172000462, 0.577588799000125, 0.0 ], [ 127.410799386000434, 0.577648613000121, 0.0 ], [ 127.410763705000463, 0.577744317000054, 0.0 ], [ 127.410722092000441, 0.577804126000103, 0.0 ], [ 127.410680475000476, 0.577875899999981, 0.0 ], [ 127.410632917000569, 0.577941689, 0.0 ], [ 127.410585359000336, 0.578013462000172, 0.0 ], [ 127.410537802000448, 0.578079252000122, 0.0 ], [ 127.410490219000366, 0.578234773000133, 0.0 ], [ 127.410472369000416, 0.578318517000127, 0.0 ], [ 127.410448570000383, 0.578426188000037, 0.0 ], [ 127.410442611000306, 0.578486008000027, 0.0 ], [ 127.410388815987019, 0.578669941710927, 0.0 ], [ 127.412609434956124, 0.579265446045497, 0.0 ], [ 127.413220899813339, 0.576411243522443, 0.0 ], [ 127.413183839598858, 0.576219542019089, 0.0 ], [ 127.412950817442677, 0.575526397329326, 0.0 ], [ 127.412472025266268, 0.574102188319955, 0.0 ], [ 127.411861324305704, 0.572285605148408, 0.0 ], [ 127.411026253901213, 0.571243367518889, 0.0 ], [ 127.409798404090083, 0.569710908374929, 0.0 ], [ 127.407796367248324, 0.567212199138282, 0.0 ], [ 127.4064413487433, 0.568446341686808, 0.0 ], [ 127.406479445000471, 0.568479232000186, 0.0 ], [ 127.40655786800049, 0.568536683000047, 0.0 ], [ 127.406632456049081, 0.568591322949544, 0.0 ], [ 127.406636292000556, 0.568594133000033, 0.0 ], [ 127.406707580000401, 0.568665937000105, 0.0 ], [ 127.406771738000401, 0.568737741000177, 0.0 ], [ 127.40680022400042, 0.56887414, 0.0 ], [ 127.406721759000419, 0.568967439000175, 0.0 ], [ 127.406677119947148, 0.5690315976384, 0.0 ], [ 127.406604994323374, 0.569135262063525, 0.0 ], [ 127.406571952000562, 0.569182753000063, 0.0 ], [ 127.406568508648277, 0.56919008085714, 0.0 ], [ 127.406541035000458, 0.569248548000075, 0.0 ], [ 127.406564796000538, 0.569278464000092, 0.0 ], [ 127.406624211000533, 0.569308391000163, 0.0 ], [ 127.406674799195187, 0.569342363076487, 0.0 ], [ 127.406677682000307, 0.569344299000079, 0.0 ], [ 127.406713325000467, 0.569386183000176, 0.0 ], [ 127.406731139000357, 0.569434045000037, 0.0 ], [ 127.406754893000397, 0.569487890000175, 0.0 ], [ 127.406772703000414, 0.569547717000034, 0.0 ], [ 127.406784578000568, 0.569583612000087, 0.0 ], [ 127.40679051100048, 0.569619507000141, 0.0 ], [ 127.406802386000635, 0.56965540300007, 0.0 ], [ 127.406820198000531, 0.569709247000105, 0.0 ], [ 127.40685584000046, 0.569751131000032, 0.0 ], [ 127.406891483000621, 0.569793016000176, 0.0 ], [ 127.406962777000516, 0.569846875000109, 0.0 ], [ 127.406983794335787, 0.569880749158528, 0.0 ], [ 127.40699247500045, 0.569894740000052, 0.0 ], [ 127.407045940000401, 0.569954576000043, 0.0 ], [ 127.407135062000492, 0.570002457000043, 0.0 ], [ 127.407271709000355, 0.570104191000098, 0.0 ], [ 127.407376639952275, 0.570157044006123, 0.0 ], [ 127.407533136000524, 0.570235870000033, 0.0 ], [ 127.407580660000548, 0.570289722000098, 0.0 ], [ 127.40760441300047, 0.57034955000006, 0.0 ], [ 127.407598460000443, 0.570385441000098, 0.0 ], [ 127.407586559000464, 0.570445258000177, 0.0 ], [ 127.407669732000471, 0.570517067000139, 0.0 ], [ 127.407675671000533, 0.57052903300007, 0.0 ], [ 127.407824203000331, 0.570630770000036, 0.0 ], [ 127.407907382000374, 0.570678650000104, 0.0 ], [ 127.407972732000502, 0.570738489000177, 0.0 ], [ 127.408034480513109, 0.570805868731838, 0.0 ], [ 127.408044018000354, 0.57081627600013, 0.0 ], [ 127.408091540000399, 0.570876110000085, 0.0 ], [ 127.408127172000334, 0.570959870000081, 0.0 ], [ 127.408150914000501, 0.571061572000189, 0.0 ], [ 127.408150887000573, 0.571157286000073, 0.0 ], [ 127.408138980000402, 0.571241032000102, 0.0 ], [ 127.408109246000407, 0.571318791000067, 0.0 ], [ 127.408085452000449, 0.571408516000076, 0.0 ], [ 127.408083558674747, 0.571416764573826, 0.0 ], [ 127.408067603000603, 0.571486278000122, 0.0 ], [ 127.408067581000608, 0.57157002800011, 0.0 ], [ 127.408115075000495, 0.571731558000181, 0.0 ], [ 127.408150706000313, 0.571815317000073, 0.0 ], [ 127.408164603109043, 0.571844873284078, 0.0 ], [ 127.40820415500032, 0.571928991999982, 0.0 ] ] ] ] } },
{ "type": "Feature", "properties": { "Id_Zona": 3, "Zona": "Inti", "Sub_Zona": "Inti", "Luas": 69.153440001500002, "KKP": "Pulau Mare" }, "geometry": { "type": "MultiPolygon", "coordinates": [ [ [ [ 127.405705580766792, 0.567933450910516, 0.0 ], [ 127.405841325601017, 0.567826506535027, 0.0 ], [ 127.405854853651334, 0.567815227387484, 0.0 ], [ 127.408048785468011, 0.565986014747466, 0.0 ], [ 127.406721226498775, 0.56380993133655, 0.0 ], [ 127.406610857764193, 0.563629019167251, 0.0 ], [ 127.404688918719302, 0.560478650883112, 0.0 ], [ 127.404293445771899, 0.5598304068954, 0.0 ], [ 127.402768364550951, 0.5598304068954, 0.0 ], [ 127.401179841340038, 0.559830406895401, 0.0 ], [ 127.398956928679681, 0.562012507172937, 0.0 ], [ 127.398825192629943, 0.56214182456614, 0.0 ], [ 127.398454669655166, 0.562505544787939, 0.0 ], [ 127.39845461984271, 0.563036301072884, 0.0 ], [ 127.398454607652411, 0.56316618943589, 0.0 ], [ 127.398454593507495, 0.563316904151633, 0.0 ], [ 127.398454588988656, 0.563365053752193, 0.0 ], [ 127.39845457856903, 0.563476077373934, 0.0 ], [ 127.398454531392758, 0.563978740206892, 0.0 ], [ 127.398454525510132, 0.564041419568695, 0.0 ], [ 127.398458942004694, 0.564234459682382, 0.0 ], [ 127.398494103000417, 0.564263235000169, 0.0 ], [ 127.398715120000361, 0.564399687000047, 0.0 ], [ 127.398807783000606, 0.564536105000172, 0.0 ], [ 127.398850550000347, 0.564600723000182, 0.0 ], [ 127.398893320000511, 0.564650983999968, 0.0 ], [ 127.3989432110004, 0.564744318000066, 0.0 ], [ 127.399014499000486, 0.564816123000071, 0.0 ], [ 127.399085789000537, 0.56488074900011, 0.0 ], [ 127.399185598000329, 0.56495974000012, 0.0 ], [ 127.399292529000377, 0.565074626000068, 0.0 ], [ 127.399378083000514, 0.565132078000033, 0.0 ], [ 127.39951353400042, 0.565254149000054, 0.0 ], [ 127.399584816000328, 0.565347490000078, 0.0 ], [ 127.399627577000345, 0.565433643000176, 0.0 ], [ 127.399713105000359, 0.565584415000046, 0.0 ], [ 127.399798650000392, 0.565677760000028, 0.0 ], [ 127.399905590000415, 0.565756753000073, 0.0 ], [ 127.400012522000537, 0.565864460000057, 0.0 ], [ 127.400090936000623, 0.565957802000127, 0.0 ], [ 127.400140831000343, 0.566029601000082, 0.0 ], [ 127.400269127000527, 0.566244992000065, 0.0 ], [ 127.400326157000436, 0.566302435000125, 0.0 ], [ 127.400383174000311, 0.566410129000132, 0.0 ], [ 127.400418794000373, 0.566532173000098, 0.0 ], [ 127.400461555000646, 0.566618326000082, 0.0 ], [ 127.400547102000331, 0.566704492000099, 0.0 ], [ 127.400646891000378, 0.566855269000029, 0.0 ], [ 127.400760942000446, 0.567006048000166, 0.0 ], [ 127.400896388000518, 0.567149657000072, 0.0 ], [ 127.400899661294673, 0.567209270169541, 0.0 ], [ 127.400903483000405, 0.567278871000098, 0.0 ], [ 127.400903463000617, 0.567350656000087, 0.0 ], [ 127.400917701000338, 0.567436802000088, 0.0 ], [ 127.400939070000462, 0.567522950000125, 0.0 ], [ 127.400942723549363, 0.567528733144058, 0.0 ], [ 127.400988965000423, 0.567601928000101, 0.0 ], [ 127.401145836000381, 0.567623507000178, 0.0 ], [ 127.401158554683178, 0.567627584830518, 0.0 ], [ 127.401302699000397, 0.567673799999966, 0.0 ], [ 127.401345459000439, 0.567767132000085, 0.0 ], [ 127.401352507880986, 0.567786663144261, 0.0 ], [ 127.401373960000427, 0.567846103000135, 0.0 ], [ 127.401409596000306, 0.567910721000146, 0.0 ], [ 127.401516545000362, 0.567961000000139, 0.0 ], [ 127.4016591430006, 0.568025646000137, 0.0 ], [ 127.401794886611654, 0.568079631116233, 0.0 ], [ 127.401930084000554, 0.568133399000089, 0.0 ], [ 127.402003974538005, 0.568199990602181, 0.0 ], [ 127.402065536000421, 0.568255471000043, 0.0 ], [ 127.402094029000367, 0.568363156000032, 0.0 ], [ 127.402151061000467, 0.568413422000105, 0.0 ], [ 127.402243740000443, 0.568492411000136, 0.0 ], [ 127.402271784522625, 0.568512185151689, 0.0 ], [ 127.402315035000328, 0.568542681000053, 0.0 ], [ 127.402323107777619, 0.568546069755086, 0.0 ], [ 127.402400595000316, 0.568578597000169, 0.0 ], [ 127.402500409000453, 0.568636053000091, 0.0 ], [ 127.402614489000456, 0.568686334000119, 0.0 ], [ 127.402749952000335, 0.568765336000069, 0.0 ], [ 127.40283550700039, 0.568822787000101, 0.0 ], [ 127.402963845000357, 0.568880251000052, 0.0 ], [ 127.403070799000332, 0.568908995000129, 0.0 ], [ 127.403291856000436, 0.568901878000019, 0.0 ], [ 127.403455874000514, 0.568866031000141, 0.0 ], [ 127.403577110000441, 0.568822994000015, 0.0 ], [ 127.403741132000476, 0.568772790000139, 0.0 ], [ 127.403855261000402, 0.568643609000048, 0.0 ], [ 127.403990799000411, 0.568449826000062, 0.0 ], [ 127.404083522000377, 0.568370888000117, 0.0 ], [ 127.404226163000402, 0.568277608000017, 0.0 ], [ 127.404390200000392, 0.568177155000171, 0.0 ], [ 127.404518578000491, 0.568091048000042, 0.0 ], [ 127.404576744559193, 0.568084175663386, 0.0 ], [ 127.404639806000404, 0.568076725000025, 0.0 ], [ 127.404789564000524, 0.568033695, 0.0 ], [ 127.404932189000391, 0.568005021000146, 0.0 ], [ 127.405046285000338, 0.567990696000095, 0.0 ], [ 127.405210300000334, 0.567969205, 0.0 ], [ 127.40530869673384, 0.567951544818754, 0.0 ], [ 127.40537364395081, 0.567939888134788, 0.0 ], [ 127.405409972000342, 0.567933368000126, 0.0 ], [ 127.405705580766792, 0.567933450910516, 0.0 ] ] ] ] } },
{ "type": "Feature", "properties": { "Id_Zona": 5, "Zona": "Pemanfaatan", "Sub_Zona": "Pariwisata Alam Perairan", "Luas": 4.18329481524, "KKP": "Pulau Mare" }, "geometry": { "type": "MultiPolygon", "coordinates": [ [ [ [ 127.398454556413057, 0.563712149444654, 0.0 ], [ 127.39492603135875, 0.562761897980124, 0.0 ], [ 127.391415915976154, 0.561816604342766, 0.0 ], [ 127.389126031097803, 0.561816604245621, 0.0 ], [ 127.389146437777981, 0.562377327003275, 0.0 ], [ 127.389146918406254, 0.562439726364857, 0.0 ], [ 127.389210355000372, 0.562401434000037, 0.0 ], [ 127.389360108000446, 0.562372762000166, 0.0 ], [ 127.389531254000417, 0.56234409600006, 0.0 ], [ 127.38965247900056, 0.562336951000304, 0.0 ], [ 127.389752317000443, 0.562308264000137, 0.0 ], [ 127.389852160000487, 0.562265222000121, 0.0 ], [ 127.389937745000552, 0.562207818000161, 0.0 ], [ 127.390001936000417, 0.562150408000036, 0.0 ], [ 127.390116042000614, 0.562100190000137, 0.0 ], [ 127.390237277000423, 0.562057153000069, 0.0 ], [ 127.390401302000427, 0.561992592000308, 0.0 ], [ 127.39054392300045, 0.561971097000025, 0.0 ], [ 127.390613281903015, 0.561982753999473, 0.0 ], [ 127.390672270000422, 0.56199266800013, 0.0 ], [ 127.390713037312466, 0.562018800146006, 0.0 ], [ 127.390750695000619, 0.562042939000093, 0.0 ], [ 127.390843382000412, 0.562093214000128, 0.0 ], [ 127.390857645000423, 0.562086039000121, 0.0 ], [ 127.390943230000516, 0.562028636000093, 0.0 ], [ 127.391071599000384, 0.561971243000073, 0.0 ], [ 127.391164303000437, 0.561956912000028, 0.0 ], [ 127.391249864000415, 0.56198565000011, 0.0 ], [ 127.39131402300039, 0.562050273000181, 0.0 ], [ 127.391356792000465, 0.562107713000159, 0.0 ], [ 127.391442357000514, 0.562122094000187, 0.0 ], [ 127.391485147000466, 0.562100569999984, 0.0 ], [ 127.391580395363107, 0.5620111278796, 0.0 ], [ 127.39159213700043, 0.562000102000013, 0.0 ], [ 127.391699084000379, 0.56205038000013, 0.0 ], [ 127.39172044500036, 0.562165242000048, 0.0 ], [ 127.391699011000583, 0.562315983000132, 0.0 ], [ 127.391634823000444, 0.562359036999964, 0.0 ], [ 127.391542126000431, 0.562344654000128, 0.0 ], [ 127.391477960000543, 0.562308744000347, 0.0 ], [ 127.391385264000505, 0.562294361000113, 0.0 ], [ 127.391285399000466, 0.562416367000082, 0.0 ], [ 127.391235474000368, 0.562452246000134, 0.0 ], [ 127.391171284000393, 0.562502478000055, 0.0 ], [ 127.391092826000417, 0.562574240000117, 0.0 ], [ 127.391072402827945, 0.56265638280928, 0.0 ], [ 127.39107141000045, 0.56266037600011, 0.0 ], [ 127.391099913000389, 0.562732168000025, 0.0 ], [ 127.391171212000344, 0.562768081000058, 0.0 ], [ 127.391235392000681, 0.562753741000108, 0.0 ], [ 127.391320968000514, 0.562725051000086, 0.0 ], [ 127.391399419000649, 0.562682002000144, 0.0 ], [ 127.391470731000368, 0.562667665000106, 0.0 ], [ 127.391556303000357, 0.562653332000081, 0.0 ], [ 127.391620474000419, 0.562674884999978, 0.0 ], [ 127.391663245000473, 0.562725146000161, 0.0 ], [ 127.391691746000433, 0.562804117000041, 0.0 ], [ 127.391720256000426, 0.562854374000039, 0.0 ], [ 127.391773997711866, 0.562885309067496, 0.0 ], [ 127.391795151735096, 0.562897485850101, 0.0 ], [ 127.391820071000424, 0.562911830000132, 0.0 ], [ 127.391876791259037, 0.562949918951517, 0.0 ], [ 127.391927013000426, 0.562983644000042, 0.0 ], [ 127.391940403645648, 0.562991352066092, 0.0 ], [ 127.391976920000374, 0.563012372000116, 0.0 ], [ 127.392048226000597, 0.563019571000268, 0.0 ], [ 127.392148068000552, 0.562976527000103, 0.0 ], [ 127.392162341000358, 0.562933461000057, 0.0 ], [ 127.392048279000392, 0.562825751000048, 0.0 ], [ 127.391969860000344, 0.562753945000168, 0.0 ], [ 127.391884323000454, 0.562639066000144, 0.0 ], [ 127.391870080000444, 0.562567276999971, 0.0 ], [ 127.391891502000462, 0.562459606000061, 0.0 ], [ 127.391941435000376, 0.562395014, 0.0 ], [ 127.392055523000408, 0.562409402000128, 0.0 ], [ 127.392155346000422, 0.562438145000158, 0.0 ], [ 127.392276565000429, 0.562452535000091, 0.0 ], [ 127.392404919000569, 0.562452571000108, 0.0 ], [ 127.392519005000395, 0.562474137000265, 0.0 ], [ 127.392546388889741, 0.562481037139775, 0.0 ], [ 127.392563232401017, 0.562485281335341, 0.0 ], [ 127.392604568000479, 0.562495697000088, 0.0 ], [ 127.392740045000437, 0.56252444800026, 0.0 ], [ 127.392818484000358, 0.562524470000085, 0.0 ], [ 127.392874319379175, 0.562542237151376, 0.0 ], [ 127.392953956000369, 0.562567578000085, 0.0 ], [ 127.393049294564662, 0.562612399106399, 0.0 ], [ 127.393060904000436, 0.562617857000077, 0.0 ], [ 127.393096544000514, 0.562668116000054, 0.0 ], [ 127.393128808107789, 0.56270711409229, 0.0 ], [ 127.393132186000443, 0.562711197000169, 0.0 ], [ 127.393260544000555, 0.562696876000132, 0.0 ], [ 127.393353259000364, 0.562639473000104, 0.0 ], [ 127.393417446000399, 0.562603599000169, 0.0 ], [ 127.393495884000458, 0.562603621000164, 0.0 ], [ 127.393588580000355, 0.562618004000171, 0.0 ], [ 127.393731194000438, 0.562625221000132, 0.0 ], [ 127.39389519900044, 0.562632445000019, 0.0 ], [ 127.394116235000396, 0.562697111999966, 0.0 ], [ 127.394176492566643, 0.562741622248097, 0.0 ], [ 127.394223175000548, 0.562776105000012, 0.0 ], [ 127.394273077000435, 0.562826368, 0.0 ], [ 127.394380017000557, 0.562905361000048, 0.0 ], [ 127.394465569000531, 0.562969991999978, 0.0 ], [ 127.39456538300044, 0.563027447000024, 0.0 ], [ 127.394613919838989, 0.563043749423798, 0.0 ], [ 127.394640622506117, 0.563052718243966, 0.0 ], [ 127.394736505000424, 0.563084923000019, 0.0 ], [ 127.394921900000554, 0.563106509000022, 0.0 ], [ 127.394983764407797, 0.563111716663456, 0.0 ], [ 127.395007468000344, 0.563113712000188, 0.0 ], [ 127.395100152000396, 0.563171165000028, 0.0 ], [ 127.395149538106239, 0.563228014444803, 0.0 ], [ 127.395150052000417, 0.563228606000052, 0.0 ], [ 127.395207084000504, 0.563278871000079, 0.0 ], [ 127.395306899000502, 0.563336327, 0.0 ], [ 127.395442380000418, 0.563350722000052, 0.0 ], [ 127.395599257000512, 0.563350765000166, 0.0 ], [ 127.39571335900041, 0.563314904000094, 0.0 ], [ 127.395756565428528, 0.56330898494906, 0.0 ], [ 127.395813276984299, 0.563301215767524, 0.0 ], [ 127.395870241000338, 0.563293412000291, 0.0 ], [ 127.395941131937775, 0.563293431883039, 0.0 ], [ 127.395962942000551, 0.56329343800013, 0.0 ], [ 127.396048194915679, 0.56331987144398, 0.0 ], [ 127.39605563400039, 0.563322178000021, 0.0 ], [ 127.396129917145004, 0.563364936484049, 0.0 ], [ 127.396155449000375, 0.563379633000238, 0.0 ], [ 127.396269536000659, 0.563401201000033, 0.0 ], [ 127.396390756000415, 0.563408412000058, 0.0 ], [ 127.396511974000632, 0.563429982000059, 0.0 ], [ 127.39664032200038, 0.563451553000163, 0.0 ], [ 127.396679555496334, 0.563466376300766, 0.0 ], [ 127.39675440200061, 0.56349465500017, 0.0 ], [ 127.396811439000416, 0.563530564000189, 0.0 ], [ 127.396904125000674, 0.563580838000064, 0.0 ], [ 127.396909547842029, 0.563583872803633, 0.0 ], [ 127.397032459000457, 0.563652657999967, 0.0 ], [ 127.39714654500051, 0.563681404000078, 0.0 ], [ 127.397267770000425, 0.563674259000095, 0.0 ], [ 127.397282505952134, 0.563675404372077, 0.0 ], [ 127.397360467000439, 0.563681464000069, 0.0 ], [ 127.397394841034043, 0.563723011325635, 0.0 ], [ 127.397431752000557, 0.563767625000196, 0.0 ], [ 127.397440766937265, 0.563808516889537, 0.0 ], [ 127.397445996000428, 0.56383223600011, 0.0 ], [ 127.397609994000391, 0.563868174000049, 0.0 ], [ 127.397782943344268, 0.563888311030041, 0.0 ], [ 127.397795388000418, 0.563889760000052, 0.0 ], [ 127.397895202000527, 0.563954394000063, 0.0 ], [ 127.3980520690004, 0.563990330000024, 0.0 ], [ 127.39814914657596, 0.564028602208225, 0.0 ], [ 127.398216059000546, 0.564054982000072, 0.0 ], [ 127.398265953000418, 0.564133959000116, 0.0 ], [ 127.398380036000489, 0.564169883999966, 0.0 ], [ 127.398458942004694, 0.564234459682382, 0.0 ], [ 127.398454525510132, 0.564041419568695, 0.0 ], [ 127.398454531392758, 0.563978740206892, 0.0 ], [ 127.398454556413057, 0.563712149444654, 0.0 ] ] ] ] } }
]
}
